start=new Date('2023-03-24T00:00:00.000Z').valueOf();
sats=[{"MEAN_MOTION":"15.06447905","CLASSIFICATION_TYPE":"U","DECAY_DATE":null,"OBJECT_NAME":"STARLINK-2144","BSTAR":"0.00201830000000","PERIOD":"95.589","TIME_SYSTEM":"UTC","RCS_SIZE":"LARGE","MEAN_MOTION_DOT":"0.00029948","EPHEMERIS_TYPE":"0","CENTER_NAME":"EARTH","REV_AT_EPOCH":"11459","SEMIMAJOR_AXIS":"6925.202","TLE_LINE1":"1 47734U 21017N   23082.22521120  .00029948  00000-0  20183-2 0  9994","NORAD_CAT_ID":"47734","RA_OF_ASC_NODE":"30.9859","FILE":"3868494","APOAPSIS":"547.806","OBJECT_ID":"2021-017N","SITE":"AFETR","INCLINATION":"53.0549","MEAN_MOTION_DDOT":"0.0000000000000","ARG_OF_PERICENTER":"114.9059","ELEMENT_SET_NO":"999","GP_ID":"228704083","PERIAPSIS":"546.327","LAUNCH_DATE":"2021-03-04","TLE_LINE2":"2 47734  53.0549  30.9859 0001068 114.9059 245.2041 15.06447905114590","OBJECT_TYPE":"PAYLOAD","ECCENTRICITY":"0.00010680","REF_FRAME":"TEME","EPOCH":"2023-03-23T05:24:18.247680","COUNTRY_CODE":"US","MEAN_ANOMALY":"245.2041","MEAN_ELEMENT_THEORY":"SGP4"},{"LAUNCH_DATE":"2021-03-04","GP_ID":"228737910","PERIAPSIS":"546.643","ARG_OF_PERICENTER":"84.4617","ELEMENT_SET_NO":"999","INCLINATION":"53.0515","MEAN_MOTION_DDOT":"0.0000000000000","FILE":"3868816","APOAPSIS":"547.831","OBJECT_ID":"2021-017P","SITE":"AFETR","RA_OF_ASC_NODE":"313.1004","NORAD_CAT_ID":"47735","MEAN_ELEMENT_THEORY":"SGP4","MEAN_ANOMALY":"275.6470","COUNTRY_CODE":"US","REF_FRAME":"TEME","EPOCH":"2023-03-23T21:42:59.897088","ECCENTRICITY":"0.00008580","TLE_LINE2":"2 47735  53.0515 313.1004 0000858  84.4617 275.6470 15.06392288115721","OBJECT_TYPE":"PAYLOAD","TIME_SYSTEM":"UTC","PERIOD":"95.593","DECAY_DATE":null,"BSTAR":"0.00147080000000","OBJECT_NAME":"STARLINK-2146","CLASSIFICATION_TYPE":"U","MEAN_MOTION":"15.06392288","SEMIMAJOR_AXIS":"6925.372","TLE_LINE1":"1 47735U 21017P   23082.90485992  .00021689  00000-0  14708-2 0  9996","REV_AT_EPOCH":"11572","CENTER_NAME":"EARTH","MEAN_MOTION_DOT":"0.00021689","EPHEMERIS_TYPE":"0","RCS_SIZE":"LARGE"},{"NORAD_CAT_ID":"47736","RA_OF_ASC_NODE":"21.4292","APOAPSIS":"547.777","FILE":"3868494","OBJECT_ID":"2021-017Q","SITE":"AFETR","INCLINATION":"53.0553","MEAN_MOTION_DDOT":"0.0000000000000","ARG_OF_PERICENTER":"118.2448","ELEMENT_SET_NO":"999","GP_ID":"228705071","PERIAPSIS":"546.340","LAUNCH_DATE":"2021-03-04","TLE_LINE2":"2 47736  53.0553  21.4292 0001037 118.2448 241.8646 15.06450608114753","OBJECT_TYPE":"PAYLOAD","ECCENTRICITY":"0.00010370","REF_FRAME":"TEME","EPOCH":"2023-03-23T03:02:19.404672","COUNTRY_CODE":"US","MEAN_ANOMALY":"241.8646","MEAN_ELEMENT_THEORY":"SGP4","MEAN_MOTION":"15.06450608","CLASSIFICATION_TYPE":"U","DECAY_DATE":null,"BSTAR":"0.00244090000000","OBJECT_NAME":"STARLINK-2147","PERIOD":"95.589","TIME_SYSTEM":"UTC","RCS_SIZE":"LARGE","MEAN_MOTION_DOT":"0.00036313","EPHEMERIS_TYPE":"0","CENTER_NAME":"EARTH","REV_AT_EPOCH":"11475","SEMIMAJOR_AXIS":"6925.193","TLE_LINE1":"1 47736U 21017Q   23082.12661348  .00036313  00000-0  24409-2 0  9991"},{"ECCENTRICITY":"0.00011160","OBJECT_TYPE":"PAYLOAD","TLE_LINE2":"2 47737  53.0558 242.1366 0001116  80.3995 279.7133 15.35744236116777","MEAN_ANOMALY":"279.7133","MEAN_ELEMENT_THEORY":"SGP4","COUNTRY_CODE":"US","EPOCH":"2023-03-23T18:02:28.595040","REF_FRAME":"TEME","MEAN_MOTION_DDOT":"0.0000000000000","INCLINATION":"53.0558","SITE":"AFETR","APOAPSIS":"459.476","FILE":"3868816","OBJECT_ID":"2021-017R","NORAD_CAT_ID":"47737","RA_OF_ASC_NODE":"242.1366","LAUNCH_DATE":"2021-03-04","PERIAPSIS":"457.950","GP_ID":"228738912","ELEMENT_SET_NO":"999","ARG_OF_PERICENTER":"80.3995","CENTER_NAME":"EARTH","MEAN_MOTION_DOT":"-0.00000510","EPHEMERIS_TYPE":"0","RCS_SIZE":"LARGE","TLE_LINE1":"1 47737U 21017R   23082.75171985 -.00000510  00000-0 -36144-5 0  9998","SEMIMAJOR_AXIS":"6836.848","REV_AT_EPOCH":"11677","CLASSIFICATION_TYPE":"U","MEAN_MOTION":"15.35744236","TIME_SYSTEM":"UTC","PERIOD":"93.766","BSTAR":"-0.00000361440000","OBJECT_NAME":"STARLINK-2148","DECAY_DATE":null},{"SEMIMAJOR_AXIS":"6925.123","TLE_LINE1":"1 47738U 21017S   23082.10082209  .00033662  00000-0  22635-2 0  9997","REV_AT_EPOCH":"11474","CENTER_NAME":"EARTH","MEAN_MOTION_DOT":"0.00033662","EPHEMERIS_TYPE":"0","RCS_SIZE":"LARGE","TIME_SYSTEM":"UTC","PERIOD":"95.587","DECAY_DATE":null,"BSTAR":"0.00226350000000","OBJECT_NAME":"STARLINK-2149","CLASSIFICATION_TYPE":"U","MEAN_MOTION":"15.06473625","MEAN_ELEMENT_THEORY":"SGP4","MEAN_ANOMALY":"250.5506","COUNTRY_CODE":"US","REF_FRAME":"TEME","EPOCH":"2023-03-23T02:25:11.028576","ECCENTRICITY":"0.00009410","TLE_LINE2":"2 47738  53.0565  21.8186 0000941 109.5585 250.5506 15.06473625114747","OBJECT_TYPE":"PAYLOAD","LAUNCH_DATE":"2021-03-04","GP_ID":"228704583","PERIAPSIS":"546.336","ARG_OF_PERICENTER":"109.5585","ELEMENT_SET_NO":"999","INCLINATION":"53.0565","MEAN_MOTION_DDOT":"0.0000000000000","OBJECT_ID":"2021-017S","FILE":"3868494","APOAPSIS":"547.640","SITE":"AFETR","NORAD_CAT_ID":"47738","RA_OF_ASC_NODE":"21.8186"},{"TLE_LINE2":"2 47739  53.0537  45.5536 0001240 108.8929 251.2195 15.06438021114435","OBJECT_TYPE":"PAYLOAD","ECCENTRICITY":"0.00012400","REF_FRAME":"TEME","EPOCH":"2023-03-23T07:42:57.939552","COUNTRY_CODE":"US","MEAN_ELEMENT_THEORY":"SGP4","MEAN_ANOMALY":"251.2195","NORAD_CAT_ID":"47739","RA_OF_ASC_NODE":"45.5536","FILE":"3868494","OBJECT_ID":"2021-017T","APOAPSIS":"547.956","SITE":"AFETR","INCLINATION":"53.0537","MEAN_MOTION_DDOT":"0.0000000000000","ARG_OF_PERICENTER":"108.8929","ELEMENT_SET_NO":"999","GP_ID":"228704834","PERIAPSIS":"546.238","LAUNCH_DATE":"2021-03-04","RCS_SIZE":"LARGE","MEAN_MOTION_DOT":"0.00024241","EPHEMERIS_TYPE":"0","CENTER_NAME":"EARTH","REV_AT_EPOCH":"11443","SEMIMAJOR_AXIS":"6925.232","TLE_LINE1":"1 47739U 21017T   23082.32150393  .00024241  00000-0  16390-2 0  9996","MEAN_MOTION":"15.06438021","CLASSIFICATION_TYPE":"U","DECAY_DATE":null,"BSTAR":"0.00163900000000","OBJECT_NAME":"STARLINK-2150","PERIOD":"95.590","TIME_SYSTEM":"UTC"},{"SEMIMAJOR_AXIS":"6925.233","TLE_LINE1":"1 47740U 21017U   23082.23627596  .00027198  00000-0  18359-2 0  9993","REV_AT_EPOCH":"11462","CENTER_NAME":"EARTH","RCS_SIZE":"LARGE","MEAN_MOTION_DOT":"0.00027198","EPHEMERIS_TYPE":"0","PERIOD":"95.590","TIME_SYSTEM":"UTC","DECAY_DATE":null,"BSTAR":"0.00183590000000","OBJECT_NAME":"STARLINK-2152","CLASSIFICATION_TYPE":"U","MEAN_MOTION":"15.06437785","COUNTRY_CODE":"US","MEAN_ELEMENT_THEORY":"SGP4","MEAN_ANOMALY":"268.7960","REF_FRAME":"TEME","EPOCH":"2023-03-23T05:40:14.242944","ECCENTRICITY":"0.00008910","TLE_LINE2":"2 47740  53.0544  30.9389 0000891  91.3131 268.7960 15.06437785114621","OBJECT_TYPE":"PAYLOAD","LAUNCH_DATE":"2021-03-04","ARG_OF_PERICENTER":"91.3131","ELEMENT_SET_NO":"999","GP_ID":"228705571","PERIAPSIS":"546.481","FILE":"3868494","OBJECT_ID":"2021-017U","APOAPSIS":"547.715","SITE":"AFETR","INCLINATION":"53.0544","MEAN_MOTION_DDOT":"0.0000000000000","NORAD_CAT_ID":"47740","RA_OF_ASC_NODE":"30.9389"},{"EPOCH":"2023-03-23T17:10:15.818304","REF_FRAME":"TEME","COUNTRY_CODE":"US","MEAN_ELEMENT_THEORY":"SGP4","MEAN_ANOMALY":"246.1297","OBJECT_TYPE":"PAYLOAD","TLE_LINE2":"2 47741  53.0550  28.7867 0001352 113.9833 246.1297 15.06398940114653","ECCENTRICITY":"0.00013520","ELEMENT_SET_NO":"999","ARG_OF_PERICENTER":"113.9833","PERIAPSIS":"546.280","GP_ID":"228738413","LAUNCH_DATE":"2021-03-04","RA_OF_ASC_NODE":"28.7867","NORAD_CAT_ID":"47741","SITE":"AFETR","FILE":"3868816","APOAPSIS":"548.153","OBJECT_ID":"2021-017V","MEAN_MOTION_DDOT":"0.0000000000000","INCLINATION":"53.0550","REV_AT_EPOCH":"11465","TLE_LINE1":"1 47741U 21017V   23082.71546086  .00004440  00000-0  31677-3 0  9995","SEMIMAJOR_AXIS":"6925.352","RCS_SIZE":"LARGE","MEAN_MOTION_DOT":"0.00004440","EPHEMERIS_TYPE":"0","CENTER_NAME":"EARTH","BSTAR":"0.00031677000000","OBJECT_NAME":"STARLINK-2154","DECAY_DATE":null,"PERIOD":"95.592","TIME_SYSTEM":"UTC","MEAN_MOTION":"15.06398940","CLASSIFICATION_TYPE":"U"},{"GP_ID":"228738642","PERIAPSIS":"546.186","ARG_OF_PERICENTER":"103.2688","ELEMENT_SET_NO":"999","LAUNCH_DATE":"2021-03-04","NORAD_CAT_ID":"47742","RA_OF_ASC_NODE":"17.8392","INCLINATION":"53.0543","MEAN_MOTION_DDOT":"0.0000000000000","FILE":"3868816","OBJECT_ID":"2021-017W","APOAPSIS":"547.591","SITE":"AFETR","REF_FRAME":"TEME","EPOCH":"2023-03-23T22:14:03.865632","MEAN_ELEMENT_THEORY":"SGP4","MEAN_ANOMALY":"256.8414","COUNTRY_CODE":"US","TLE_LINE2":"2 47742  53.0543  17.8392 0001014 103.2688 256.8414 15.06506031114878","OBJECT_TYPE":"PAYLOAD","ECCENTRICITY":"0.00010140","DECAY_DATE":null,"OBJECT_NAME":"STARLINK-2156","BSTAR":"0.00353060000000","TIME_SYSTEM":"UTC","PERIOD":"95.585","MEAN_MOTION":"15.06506031","CLASSIFICATION_TYPE":"U","REV_AT_EPOCH":"11487","TLE_LINE1":"1 47742U 21017W   23082.92643363  .00052854  00000-0  35306-2 0  9999","SEMIMAJOR_AXIS":"6925.024","MEAN_MOTION_DOT":"0.00052854","EPHEMERIS_TYPE":"0","RCS_SIZE":"LARGE","CENTER_NAME":"EARTH"},{"ECCENTRICITY":"0.00009130","TLE_LINE2":"2 47743  53.0552  21.0027 0000913 111.3718 248.7369 15.06448518114089","OBJECT_TYPE":"PAYLOAD","COUNTRY_CODE":"US","MEAN_ELEMENT_THEORY":"SGP4","MEAN_ANOMALY":"248.7369","REF_FRAME":"TEME","EPOCH":"2023-03-23T05:20:19.505472","FILE":"3868552","OBJECT_ID":"2021-017X","APOAPSIS":"547.697","SITE":"AFETR","INCLINATION":"53.0552","MEAN_MOTION_DDOT":"0.0000000000000","NORAD_CAT_ID":"47743","RA_OF_ASC_NODE":"21.0027","LAUNCH_DATE":"2021-03-04","ARG_OF_PERICENTER":"111.3718","ELEMENT_SET_NO":"999","GP_ID":"228711232","PERIAPSIS":"546.433","CENTER_NAME":"EARTH","RCS_SIZE":"LARGE","EPHEMERIS_TYPE":"0","MEAN_MOTION_DOT":"0.00028836","TLE_LINE1":"1 47743U 21017X   23082.22244798  .00028836  00000-0  19443-2 0  9999","SEMIMAJOR_AXIS":"6925.200","REV_AT_EPOCH":"11408","CLASSIFICATION_TYPE":"U","MEAN_MOTION":"15.06448518","PERIOD":"95.589","TIME_SYSTEM":"UTC","DECAY_DATE":null,"BSTAR":"0.00194430000000","OBJECT_NAME":"STARLINK-2157"}];
